{
    "links": {
        "self": "http://www.neowsapp.com/rest/v1/neo/3797850?api_key=iIulBulltgU6a56xZRHN4H3l9WmuAYTsLGpBGhQ2"
    },
    "id": "3797850",
    "neo_reference_id": "3797850",
    "name": "(2018 BC3)",
    "designation": "2018 BC3",
    "nasa_jpl_url": "http://ssd.jpl.nasa.gov/sbdb.cgi?sstr=3797850",
    "absolute_magnitude_h": 25.3,
    "estimated_diameter": {
        "kilometers": {
            "estimated_diameter_min": 0.0231502122,
            "estimated_diameter_max": 0.0517654482
        },
        "meters": {
            "estimated_diameter_min": 23.150212221,
            "estimated_diameter_max": 51.7654482198
        },
        "miles": {
            "estimated_diameter_min": 0.0143848705,
            "estimated_diameter_max": 0.0321655483
        },
        "feet": {
            "estimated_diameter_min": 75.9521422633,
            "estimated_diameter_max": 169.8341531374
        }
    },
    "is_potentially_hazardous_asteroid": false,
    "close_approach_data": [
        {
            "close_approach_date": "2018-01-18",
            "close_approach_date_full": "2018-Jan-18 12:40",
            "epoch_date_close_approach": 1516279200000,
            "relative_velocity": {
                "kilometers_per_second": "6.4347298031",
                "kilometers_per_hour": "23165.0272910494",
                "miles_per_hour": "14393.8470964857"
            },
            "miss_distance": {
                "astronomical": "0.0559732808",
                "lunar": "21.7736062312",
                "kilometers": "8373483.584591896",
                "miles": "5203041.4312283248"
            },
            "orbiting_body": "Earth"
        }
    ],
    "orbital_data": {
        "orbit_id": "7",
        "orbit_determination_date": "2018-02-26 06:22:13",
        "first_observation_date": "2018-01-20",
        "last_observation_date": "2018-02-08",
        "data_arc_in_days": 19,
        "observations_used": 65,
        "orbit_uncertainty": "7",
        "minimum_orbit_intersection": ".0478321",
        "jupiter_tisserand_invariant": "3.280",
        "epoch_osculation": "2459000.5",
        "eccentricity": ".5716241137440099",
        "semi_major_axis": "2.403106411373718",
        "inclination": "1.811231738447608",
        "ascending_node_longitude": "92.15204909702857",
        "orbital_period": "1360.686042804422",
        "perihelion_distance": "1.029432838739669",
        "perihelion_argument": "27.78103989031312",
        "aphelion_distance": "3.776779984007768",
        "perihelion_time": "2459501.086076523988",
        "mean_anomaly": "227.5587300232651",
        "mean_motion": ".2645724205842717",
        "equinox": "J2000",
        "orbit_class": {
            "orbit_class_type": "AMO",
            "orbit_class_description": "Near-Earth asteroid orbits similar to that of 1221 Amor",
            "orbit_class_range": "1.017 AU < q (perihelion) < 1.3 AU"
        }
    },
    "is_sentry_object": false
}